start=new Date('2023-04-08T00:00:00.000Z').valueOf();
sats=[{"MEAN_MOTION_DOT":"0.00002538","FILE":"3882626","APOAPSIS":"547.978","MEAN_MOTION_DDOT":"0.0000000000000","NORAD_CAT_ID":"48454","EPOCH":"2023-04-07T05:57:24.096384","MEAN_ANOMALY":"256.3346","PERIAPSIS":"546.589","INCLINATION":"53.0540","GP_ID":"229683043","CENTER_NAME":"EARTH","ECCENTRICITY":"0.00010030","DECAY_DATE":null,"SITE":"AFETR","RCS_SIZE":"LARGE","LAUNCH_DATE":"2021-05-09","COUNTRY_CODE":"US","OBJECT_ID":"2021-040AC","SEMIMAJOR_AXIS":"6925.418","RA_OF_ASC_NODE":"293.5493","CLASSIFICATION_TYPE":"U","OBJECT_NAME":"STARLINK-2654","MEAN_ELEMENT_THEORY":"SGP4","ARG_OF_PERICENTER":"103.7754","TLE_LINE2":"2 48454  53.0540 293.5493 0001003 103.7754 256.3346 15.06377282105747","BSTAR":"0.00018929000000","TIME_SYSTEM":"UTC","OBJECT_TYPE":"PAYLOAD","REF_FRAME":"TEME","MEAN_MOTION":"15.06377282","PERIOD":"95.594","TLE_LINE1":"1 48454U 21040AC  23097.24819556  .00002538  00000-0  18929-3 0  9993","EPHEMERIS_TYPE":"0","ELEMENT_SET_NO":"999","REV_AT_EPOCH":"10574"},{"TIME_SYSTEM":"UTC","OBJECT_TYPE":"PAYLOAD","REF_FRAME":"TEME","MEAN_MOTION":"15.06406519","PERIOD":"95.592","TLE_LINE1":"1 48455U 21040AD  23097.24450382  .00015892  00000-0  10832-2 0  9993","ELEMENT_SET_NO":"999","EPHEMERIS_TYPE":"0","REV_AT_EPOCH":"10573","BSTAR":"0.00108320000000","ARG_OF_PERICENTER":"87.3891","TLE_LINE2":"2 48455  53.0533 293.5659 0000611  87.3891 272.7168 15.06406519105736","RCS_SIZE":"LARGE","SITE":"AFETR","DECAY_DATE":null,"ECCENTRICITY":"0.00006110","OBJECT_ID":"2021-040AD","SEMIMAJOR_AXIS":"6925.329","LAUNCH_DATE":"2021-05-09","COUNTRY_CODE":"US","RA_OF_ASC_NODE":"293.5659","CLASSIFICATION_TYPE":"U","MEAN_ELEMENT_THEORY":"SGP4","OBJECT_NAME":"STARLINK-2497","APOAPSIS":"547.617","MEAN_MOTION_DDOT":"0.0000000000000","MEAN_MOTION_DOT":"0.00015892","FILE":"3882626","EPOCH":"2023-04-07T05:52:05.130048","NORAD_CAT_ID":"48455","PERIAPSIS":"546.770","MEAN_ANOMALY":"272.7168","INCLINATION":"53.0533","CENTER_NAME":"EARTH","GP_ID":"229682296"},{"INCLINATION":"53.0530","PERIAPSIS":"546.895","MEAN_ANOMALY":"267.8964","CENTER_NAME":"EARTH","GP_ID":"229691824","MEAN_MOTION_DDOT":"0.0000000000000","APOAPSIS":"547.395","FILE":"3882780","MEAN_MOTION_DOT":"0.00015470","EPOCH":"2023-04-07T20:06:37.019808","NORAD_CAT_ID":"48456","CLASSIFICATION_TYPE":"U","RA_OF_ASC_NODE":"290.9009","MEAN_ELEMENT_THEORY":"SGP4","OBJECT_NAME":"STARLINK-2508","RCS_SIZE":"LARGE","ECCENTRICITY":"0.00003610","DECAY_DATE":null,"SITE":"AFETR","SEMIMAJOR_AXIS":"6925.280","OBJECT_ID":"2021-040AE","COUNTRY_CODE":"US","LAUNCH_DATE":"2021-05-09","BSTAR":"0.00105450000000","TLE_LINE2":"2 48456  53.0530 290.9009 0000361  92.2066 267.8964 15.06422253106435","ARG_OF_PERICENTER":"92.2066","PERIOD":"95.591","REF_FRAME":"TEME","MEAN_MOTION":"15.06422253","REV_AT_EPOCH":"10643","TLE_LINE1":"1 48456U 21040AE  23097.83792847  .00015470  00000-0  10545-2 0  9997","ELEMENT_SET_NO":"999","EPHEMERIS_TYPE":"0","TIME_SYSTEM":"UTC","OBJECT_TYPE":"PAYLOAD"},{"TLE_LINE1":"1 48458U 21040AG  23097.85038396  .00014181  00000-0  96821-3 0  9993","EPHEMERIS_TYPE":"0","ELEMENT_SET_NO":"999","REV_AT_EPOCH":"10630","MEAN_MOTION":"15.06430021","REF_FRAME":"TEME","PERIOD":"95.590","OBJECT_TYPE":"PAYLOAD","TIME_SYSTEM":"UTC","BSTAR":"0.00096821000000","ARG_OF_PERICENTER":"96.9258","TLE_LINE2":"2 48458  53.0529 295.9316 0000453  96.9258 263.1782 15.06430021106302","MEAN_ELEMENT_THEORY":"SGP4","OBJECT_NAME":"STARLINK-2698","RA_OF_ASC_NODE":"295.9316","CLASSIFICATION_TYPE":"U","OBJECT_ID":"2021-040AG","SEMIMAJOR_AXIS":"6925.257","LAUNCH_DATE":"2021-05-09","COUNTRY_CODE":"US","RCS_SIZE":"LARGE","SITE":"AFETR","DECAY_DATE":null,"ECCENTRICITY":"0.00004530","GP_ID":"229691819","CENTER_NAME":"EARTH","MEAN_ANOMALY":"263.1782","PERIAPSIS":"546.808","INCLINATION":"53.0529","EPOCH":"2023-04-07T20:24:33.174144","NORAD_CAT_ID":"48458","APOAPSIS":"547.435","MEAN_MOTION_DDOT":"0.0000000000000","MEAN_MOTION_DOT":"0.00014181","FILE":"3882780"},{"TIME_SYSTEM":"UTC","OBJECT_TYPE":"PAYLOAD","MEAN_MOTION":"15.06403953","REF_FRAME":"TEME","PERIOD":"95.592","TLE_LINE1":"1 48459U 21040AH  23097.24592858  .00013700  00000-0  93674-3 0  9994","ELEMENT_SET_NO":"999","EPHEMERIS_TYPE":"0","REV_AT_EPOCH":"10567","ARG_OF_PERICENTER":"118.7299","TLE_LINE2":"2 48459  53.0550 298.9173 0000263 118.7299 241.3716 15.06403953105676","BSTAR":"0.00093674000000","ECCENTRICITY":"0.00002630","DECAY_DATE":null,"SITE":"AFETR","RCS_SIZE":"LARGE","LAUNCH_DATE":"2021-05-09","COUNTRY_CODE":"US","OBJECT_ID":"2021-040AH","SEMIMAJOR_AXIS":"6925.336","RA_OF_ASC_NODE":"298.9173","CLASSIFICATION_TYPE":"U","OBJECT_NAME":"STARLINK-2579","MEAN_ELEMENT_THEORY":"SGP4","MEAN_MOTION_DOT":"0.00013700","FILE":"3882626","APOAPSIS":"547.384","MEAN_MOTION_DDOT":"0.0000000000000","NORAD_CAT_ID":"48459","EPOCH":"2023-04-07T05:54:08.229312","PERIAPSIS":"547.019","INCLINATION":"53.0550","MEAN_ANOMALY":"241.3716","GP_ID":"229683544","CENTER_NAME":"EARTH"},{"BSTAR":"0.00133410000000","TLE_LINE2":"2 48460  53.0519 295.7941 0001122  96.2666 263.8451 15.06431560106260","ARG_OF_PERICENTER":"96.2666","REV_AT_EPOCH":"10626","TLE_LINE1":"1 48460U 21040AJ  23097.86143296  .00019663  00000-0  13341-2 0  9998","ELEMENT_SET_NO":"999","EPHEMERIS_TYPE":"0","PERIOD":"95.590","REF_FRAME":"TEME","MEAN_MOTION":"15.06431560","OBJECT_TYPE":"PAYLOAD","TIME_SYSTEM":"UTC","CENTER_NAME":"EARTH","GP_ID":"229691319","PERIAPSIS":"546.340","MEAN_ANOMALY":"263.8451","INCLINATION":"53.0519","EPOCH":"2023-04-07T20:40:27.807744","NORAD_CAT_ID":"48460","MEAN_MOTION_DDOT":"0.0000000000000","APOAPSIS":"547.894","FILE":"3882780","MEAN_MOTION_DOT":"0.00019663","MEAN_ELEMENT_THEORY":"SGP4","OBJECT_NAME":"STARLINK-2582","CLASSIFICATION_TYPE":"U","RA_OF_ASC_NODE":"295.7941","SEMIMAJOR_AXIS":"6925.252","OBJECT_ID":"2021-040AJ","COUNTRY_CODE":"US","LAUNCH_DATE":"2021-05-09","RCS_SIZE":"LARGE","DECAY_DATE":null,"SITE":"AFETR","ECCENTRICITY":"0.00011220"},{"OBJECT_TYPE":"PAYLOAD","TIME_SYSTEM":"UTC","REV_AT_EPOCH":"10703","ELEMENT_SET_NO":"999","TLE_LINE1":"1 48461U 21040AK  23097.80980151  .00003639  00000-0  26294-3 0  9990","EPHEMERIS_TYPE":"0","PERIOD":"95.591","MEAN_MOTION":"15.06421315","REF_FRAME":"TEME","BSTAR":"0.00026294000000","TLE_LINE2":"2 48461  53.0518 296.0208 0001612 102.8113 257.3056 15.06421315107037","ARG_OF_PERICENTER":"102.8113","SEMIMAJOR_AXIS":"6925.283","OBJECT_ID":"2021-040AK","COUNTRY_CODE":"US","LAUNCH_DATE":"2021-05-09","RCS_SIZE":"LARGE","SITE":"AFETR","DECAY_DATE":null,"ECCENTRICITY":"0.00016120","MEAN_ELEMENT_THEORY":"SGP4","OBJECT_NAME":"STARLINK-2693","CLASSIFICATION_TYPE":"U","RA_OF_ASC_NODE":"296.0208","EPOCH":"2023-04-07T19:26:06.850464","NORAD_CAT_ID":"48461","MEAN_MOTION_DDOT":"0.0000000000000","APOAPSIS":"548.265","FILE":"3882781","MEAN_MOTION_DOT":"0.00003639","CENTER_NAME":"EARTH","GP_ID":"229691333","INCLINATION":"53.0518","PERIAPSIS":"546.032","MEAN_ANOMALY":"257.3056"},{"MEAN_MOTION_DDOT":"0.0000000000000","APOAPSIS":"547.942","FILE":"3882626","MEAN_MOTION_DOT":"0.00018798","EPOCH":"2023-04-07T14:15:01.004832","NORAD_CAT_ID":"48462","PERIAPSIS":"546.627","MEAN_ANOMALY":"236.2833","INCLINATION":"53.0545","CENTER_NAME":"EARTH","GP_ID":"229683298","RCS_SIZE":"LARGE","DECAY_DATE":null,"ECCENTRICITY":"0.00009490","SITE":"AFETR","SEMIMAJOR_AXIS":"6925.420","OBJECT_ID":"2021-040AL","COUNTRY_CODE":"US","LAUNCH_DATE":"2021-05-09","CLASSIFICATION_TYPE":"U","RA_OF_ASC_NODE":"302.2772","MEAN_ELEMENT_THEORY":"SGP4","OBJECT_NAME":"STARLINK-2683","BSTAR":"0.00127830000000","TLE_LINE2":"2 48462  53.0545 302.2772 0000949 123.8246 236.2833 15.06376822105653","ARG_OF_PERICENTER":"123.8246","TIME_SYSTEM":"UTC","OBJECT_TYPE":"PAYLOAD","PERIOD":"95.594","REF_FRAME":"TEME","MEAN_MOTION":"15.06376822","REV_AT_EPOCH":"10565","ELEMENT_SET_NO":"999","TLE_LINE1":"1 48462U 21040AL  23097.59376163  .00018798  00000-0  12783-2 0  9998","EPHEMERIS_TYPE":"0"},{"OBJECT_TYPE":"PAYLOAD","TIME_SYSTEM":"UTC","EPHEMERIS_TYPE":"0","TLE_LINE1":"1 48463U 21040AM  23097.66651255  .00022124  00000-0  14990-2 0  9995","ELEMENT_SET_NO":"999","REV_AT_EPOCH":"10694","MEAN_MOTION":"15.06411828","REF_FRAME":"TEME","PERIOD":"95.591","ARG_OF_PERICENTER":"101.0555","TLE_LINE2":"2 48463  53.0519 301.6695 0001052 101.0555 259.0552 15.06411828106949","BSTAR":"0.00149900000000","LAUNCH_DATE":"2021-05-09","COUNTRY_CODE":"US","OBJECT_ID":"2021-040AM","SEMIMAJOR_AXIS":"6925.312","DECAY_DATE":null,"ECCENTRICITY":"0.00010520","SITE":"AFETR","RCS_SIZE":"LARGE","OBJECT_NAME":"STARLINK-2689","MEAN_ELEMENT_THEORY":"SGP4","RA_OF_ASC_NODE":"301.6695","CLASSIFICATION_TYPE":"U","NORAD_CAT_ID":"48463","EPOCH":"2023-04-07T15:59:46.684320","MEAN_MOTION_DOT":"0.00022124","FILE":"3882639","APOAPSIS":"547.906","MEAN_MOTION_DDOT":"0.0000000000000","GP_ID":"229688061","CENTER_NAME":"EARTH","PERIAPSIS":"546.449","MEAN_ANOMALY":"259.0552","INCLINATION":"53.0519"},{"TIME_SYSTEM":"UTC","OBJECT_TYPE":"PAYLOAD","PERIOD":"95.591","REF_FRAME":"TEME","MEAN_MOTION":"15.06424740","REV_AT_EPOCH":"10697","ELEMENT_SET_NO":"999","TLE_LINE1":"1 48464U 21040AN  23097.84438191  .00015668  00000-0  10677-2 0  9991","EPHEMERIS_TYPE":"0","TLE_LINE2":"2 48464  53.0540 300.8743 0000626  40.1209 319.9826 15.06424740106974","ARG_OF_PERICENTER":"40.1209","BSTAR":"0.00106770000000","DECAY_DATE":null,"ECCENTRICITY":"0.00006260","SITE":"AFETR","RCS_SIZE":"LARGE","COUNTRY_CODE":"US","LAUNCH_DATE":"2021-05-09","SEMIMAJOR_AXIS":"6925.273","OBJECT_ID":"2021-040AN","CLASSIFICATION_TYPE":"U","RA_OF_ASC_NODE":"300.8743","OBJECT_NAME":"STARLINK-2686","MEAN_ELEMENT_THEORY":"SGP4","FILE":"3882781","MEAN_MOTION_DOT":"0.00015668","MEAN_MOTION_DDOT":"0.0000000000000","APOAPSIS":"547.571","NORAD_CAT_ID":"48464","EPOCH":"2023-04-07T20:15:54.597024","PERIAPSIS":"546.704","INCLINATION":"53.0540","MEAN_ANOMALY":"319.9826","GP_ID":"229691338","CENTER_NAME":"EARTH"}];
